[{"OBJECT_NAME":"STARLINK-32761","OBJECT_ID":"2025-014Q","EPOCH":"2026-03-09T06:14:54.326400","MEAN_MOTION":15.27586993,"ECCENTRICITY":0.00023423,"INCLINATION":42.9943,"RA_OF_ASC_NODE":160.1054,"ARG_OF_PERICENTER":141.622,"MEAN_ANOMALY":218.4799,"EPHEMERIS_TYPE":0,"CLASSIFICATION_TYPE":"U","NORAD_CAT_ID":62749,"ELEMENT_SET_NO":999,"REV_AT_EPOCH":6315,"BSTAR":0.00094873529,"MEAN_MOTION_DOT":0.00025943,"MEAN_MOTION_DDOT":0},{"OBJECT_NAME":"CZ-6A R\/B","OBJECT_ID":"2023-168B","EPOCH":"2026-03-09T21:13:08.722272","MEAN_MOTION":15.16100791,"ECCENTRICITY":0.00607667,"INCLINATION":97.7542,"RA_OF_ASC_NODE":104.7688,"ARG_OF_PERICENTER":339.2379,"MEAN_ANOMALY":20.6386,"EPHEMERIS_TYPE":0,"CLASSIFICATION_TYPE":"U","NORAD_CAT_ID":58200,"ELEMENT_SET_NO":999,"REV_AT_EPOCH":12979,"BSTAR":0.00029693841,"MEAN_MOTION_DOT":5.919e-5,"MEAN_MOTION_DDOT":0}]
